{
  "type": "FeatureCollection",
  "features": [
    {
      "type": "Feature",
      "properties": {
        "norad_id": 38818,
        "name": "FENGYUN 1C DEB",
        "group": "fengyun-1c-debris",
        "lat": -61.608801032906136,
        "lon": 70.06898005125166,
        "alt_km": 804.9961655896359,
        "timestamp": "2025-12-24T11:33:00.307566+00:00",
        "meta_object_name": "FENGYUN 1C DEB",
        "meta_object_id": "1999-025EVJ",
        "meta_epoch": "2025-12-19T22:33:15.721056",
        "meta_mean_motion": 14.39504218,
        "meta_eccentricity": 0.0088399,
        "meta_inclination": 98.2985,
        "meta_ra_of_asc_node": 50.005,
        "meta_arg_of_pericenter": 78.086,
        "meta_mean_anomaly": 98.6617,
        "meta_ephemeris_type": 0,
        "meta_classification_type": "U",
        "meta_norad_cat_id": 38818,
        "meta_element_set_no": 999,
        "meta_rev_at_epoch": 67351,
        "meta_bstar": 0.00027316,
        "meta_mean_motion_dot": 8.48e-06,
        "meta_mean_motion_ddot": 0,
        "tle_line1": "1 38818U 99025EVJ 25353.93976529  .00000848  00000+0  27316-3 0  9992",
        "tle_line2": "2 38818  98.2985  50.0050 0088399  78.0860  98.6617 14.39504218673513"
      },
      "geometry": {
        "type": "Point",
        "coordinates": [
          70.06898005125166,
          -61.608801032906136
        ]
      }
    },
    {
      "type": "Feature",
      "properties": {
        "norad_id": 38819,
        "name": "FENGYUN 1C DEB",
        "group": "fengyun-1c-debris",
        "lat": 49.30197205073725,
        "lon": -178.8681357375609,
        "alt_km": 773.1425906634086,
        "timestamp": "2025-12-24T11:33:00.307576+00:00",
        "meta_object_name": "FENGYUN 1C DEB",
        "meta_object_id": "1999-025EVK",
        "meta_epoch": "2025-12-21T05:24:44.153856",
        "meta_mean_motion": 14.19385553,
        "meta_eccentricity": 0.0080075,
        "meta_inclination": 98.6179,
        "meta_ra_of_asc_node": 347.8087,
        "meta_arg_of_pericenter": 169.9002,
        "meta_mean_anomaly": 253.6403,
        "meta_ephemeris_type": 0,
        "meta_classification_type": "U",
        "meta_norad_cat_id": 38819,
        "meta_element_set_no": 999,
        "meta_rev_at_epoch": 63598,
        "meta_bstar": 0.00031541,
        "meta_mean_motion_dot": 6.42e-06,
        "meta_mean_motion_ddot": 0,
        "tle_line1": "1 38819U 99025EVK 25355.22551104  .00000642  00000+0  31541-3 0  9992",
        "tle_line2": "2 38819  98.6179 347.8087 0080075 169.9002 253.6403 14.19385553635983"
      },
      "geometry": {
        "type": "Point",
        "coordinates": [
          -178.8681357375609,
          49.30197205073725
        ]
      }
    },
    {
      "type": "Feature",
      "properties": {
        "norad_id": 38827,
        "name": "FENGYUN 1C DEB",
        "group": "fengyun-1c-debris",
        "lat": -77.97449642101908,
        "lon": 64.86232975302623,
        "alt_km": 634.8062144730084,
        "timestamp": "2025-12-24T11:33:00.307586+00:00",
        "meta_object_name": "FENGYUN 1C DEB",
        "meta_object_id": "1999-025EVT",
        "meta_epoch": "2025-12-22T07:57:58.637952",
        "meta_mean_motion": 14.32909061,
        "meta_eccentricity": 0.02157809,
        "meta_inclination": 98.3849,
        "meta_ra_of_asc_node": 18.9611,
        "meta_arg_of_pericenter": 284.2489,
        "meta_mean_anomaly": 73.4818,
        "meta_ephemeris_type": 0,
        "meta_classification_type": "U",
        "meta_norad_cat_id": 38827,
        "meta_element_set_no": 999,
        "meta_rev_at_epoch": 61197,
        "meta_bstar": 0.00094975527,
        "meta_mean_motion_dot": 3.312e-05,
        "meta_mean_motion_ddot": 0,
        "tle_line1": "1 38827U 99025EVT 25356.33192868  .00003312  00000+0  94976-3 0  9990",
        "tle_line2": "2 38827  98.3849  18.9611 0215780 284.2489  73.4818 14.32909061611977"
      },
      "geometry": {
        "type": "Point",
        "coordinates": [
          64.86232975302623,
          -77.97449642101908
        ]
      }
    },
    {
      "type": "Feature",
      "properties": {
        "norad_id": 38829,
        "name": "FENGYUN 1C DEB",
        "group": "fengyun-1c-debris",
        "lat": -59.0976113673498,
        "lon": 29.02280322810558,
        "alt_km": 853.1965586132492,
        "timestamp": "2025-12-24T11:33:00.307596+00:00",
        "meta_object_name": "FENGYUN 1C DEB",
        "meta_object_id": "1999-025EVV",
        "meta_epoch": "2025-12-23T00:02:59.178048",
        "meta_mean_motion": 14.09237413,
        "meta_eccentricity": 0.0040717,
        "meta_inclination": 98.7489,
        "meta_ra_of_asc_node": 12.6778,
        "meta_arg_of_pericenter": 1.6502,
        "meta_mean_anomaly": 358.4796,
        "meta_ephemeris_type": 0,
        "meta_classification_type": "U",
        "meta_norad_cat_id": 38829,
        "meta_element_set_no": 999,
        "meta_rev_at_epoch": 64277,
        "meta_bstar": 0.00052837,
        "meta_mean_motion_dot": 8.83e-06,
        "meta_mean_motion_ddot": 0,
        "tle_line1": "1 38829U 99025EVV 25357.00207382  .00000883  00000+0  52837-3 0  9995",
        "tle_line2": "2 38829  98.7489  12.6778 0040717   1.6502 358.4796 14.09237413642773"
      },
      "geometry": {
        "type": "Point",
        "coordinates": [
          29.02280322810558,
          -59.0976113673498
        ]
      }
    },
    {
      "type": "Feature",
      "properties": {
        "norad_id": 38832,
        "name": "FENGYUN 1C DEB",
        "group": "fengyun-1c-debris",
        "lat": 0.4339040912937201,
        "lon": -136.841927138945,
        "alt_km": 940.5952249160364,
        "timestamp": "2025-12-24T11:33:00.307608+00:00",
        "meta_object_name": "FENGYUN 1C DEB",
        "meta_object_id": "1999-025EVY",
        "meta_epoch": "2025-12-24T02:09:06.185952",
        "meta_mean_motion": 14.04532991,
        "meta_eccentricity": 0.0083634,
        "meta_inclination": 99.2651,
        "meta_ra_of_asc_node": 42.6878,
        "meta_arg_of_pericenter": 11.1486,
        "meta_mean_anomaly": 349.1508,
        "meta_ephemeris_type": 0,
        "meta_classification_type": "U",
        "meta_norad_cat_id": 38832,
        "meta_element_set_no": 999,
        "meta_rev_at_epoch": 63917,
        "meta_bstar": 0.00096745,
        "meta_mean_motion_dot": 1.547e-05,
        "meta_mean_motion_ddot": 0,
        "tle_line1": "1 38832U 99025EVY 25358.08965493  .00001547  00000+0  96745-3 0  9996",
        "tle_line2": "2 38832  99.2651  42.6878 0083634  11.1486 349.1508 14.04532991639172"
      },
      "geometry": {
        "type": "Point",
        "coordinates": [
          -136.841927138945,
          0.4339040912937201
        ]
      }
    },
    {
      "type": "Feature",
      "properties": {
        "norad_id": 39537,
        "name": "FENGYUN 1C DEB",
        "group": "fengyun-1c-debris",
        "lat": -63.01806534769487,
        "lon": -54.52686379736549,
        "alt_km": 899.298352861877,
        "timestamp": "2025-12-24T11:33:00.307618+00:00",
        "meta_object_name": "FENGYUN 1C DEB",
        "meta_object_id": "1999-025EWE",
        "meta_epoch": "2025-12-19T15:51:43.070688",
        "meta_mean_motion": 13.84193589,
        "meta_eccentricity": 0.0177797,
        "meta_inclination": 99.1526,
        "meta_ra_of_asc_node": 139.2359,
        "meta_arg_of_pericenter": 322.4144,
        "meta_mean_anomaly": 36.4691,
        "meta_ephemeris_type": 0,
        "meta_classification_type": "U",
        "meta_norad_cat_id": 39537,
        "meta_element_set_no": 999,
        "meta_rev_at_epoch": 59352,
        "meta_bstar": 0.0010435,
        "meta_mean_motion_dot": 1.271e-05,
        "meta_mean_motion_ddot": 0,
        "tle_line1": "1 39537U 99025EWE 25353.66091517  .00001271  00000+0  10435-2 0  9990",
        "tle_line2": "2 39537  99.1526 139.2359 0177797 322.4144  36.4691 13.84193589593525"
      },
      "geometry": {
        "type": "Point",
        "coordinates": [
          -54.52686379736549,
          -63.01806534769487
        ]
      }
    },
    {
      "type": "Feature",
      "properties": {
        "norad_id": 39541,
        "name": "FENGYUN 1C DEB",
        "group": "fengyun-1c-debris",
        "lat": 56.10698358324303,
        "lon": 27.229594678218117,
        "alt_km": 769.1486432985294,
        "timestamp": "2025-12-24T11:33:00.307629+00:00",
        "meta_object_name": "FENGYUN 1C DEB",
        "meta_object_id": "1999-025EWJ",
        "meta_epoch": "2025-12-14T09:31:50.250432",
        "meta_mean_motion": 14.20397112,
        "meta_eccentricity": 0.00718166,
        "meta_inclination": 98.681,
        "meta_ra_of_asc_node": 30.4764,
        "meta_arg_of_pericenter": 68.7411,
        "meta_mean_anomaly": 292.1416,
        "meta_ephemeris_type": 0,
        "meta_classification_type": "U",
        "meta_norad_cat_id": 39541,
        "meta_element_set_no": 999,
        "meta_rev_at_epoch": 59026,
        "meta_bstar": 0.00071004371,
        "meta_mean_motion_dot": 1.519e-05,
        "meta_mean_motion_ddot": 0,
        "tle_line1": "1 39541U 99025EWJ 25348.39710938  .00001519  00000+0  71004-3 0  9999",
        "tle_line2": "2 39541  98.6810  30.4764 0071816  68.7411 292.1416 14.20397112590267"
      },
      "geometry": {
        "type": "Point",
        "coordinates": [
          27.229594678218117,
          56.10698358324303
        ]
      }
    }
  ]
}